H1 CPF  1  DLR 2021 06 04 10  6552 technosat            
H2  1704205 6203    42829 2021 06 04 00 00 00 2021 06 11 00 00 00    60 1 1  0 0 0
H9
10 0 59373  14400.000000  0      -2256585.740      -5649119.246      -3402631.064
10 0 59373  14460.000000  0      -2257154.714      -5399491.093      -3787128.073
10 0 59373  14520.000000  0      -2245930.425      -5127161.231      -4155553.900
10 0 59373  14580.000000  0      -2222773.571      -4833395.693      -4506357.217
10 0 59373  14640.000000  0      -2187606.606      -4519550.382      -4838063.823
10 0 59373  14700.000000  0      -2140414.648      -4187064.444      -5149282.629
10 0 59373  14760.000000  0      -2081246.069      -3837453.355      -5438711.259
10 0 59373  14820.000000  0      -2010212.760      -3472301.725      -5705141.233
10 0 59373  14880.000000  0      -1927490.077      -3093255.861      -5947462.715
10 0 59373  14940.000000  0      -1833316.453      -2702016.116      -6164668.812
10 0 59373  15000.000000  0      -1727992.668      -2300329.072      -6355859.365
10 0 59373  15060.000000  0      -1611880.844      -1889979.647      -6520244.254
10 0 59373  15120.000000  0      -1485403.157      -1472783.140      -6657146.267
10 0 59373  15180.000000  0      -1349040.249      -1050577.219      -6766003.517
10 0 59373  15240.000000  0      -1203329.391       -625213.901      -6846371.386
10 0 59373  15300.000000  0      -1048862.336       -198551.545      -6897924.037
10 0 59373  15360.000000  0       -886282.874        227553.078      -6920455.460
10 0 59373  15420.000000  0       -716284.147        651252.636      -6913880.114
10 0 59373  15480.000000  0       -539605.720       1070717.078      -6878233.128
10 0 59373  15540.000000  0       -357030.434       1484141.314      -6813669.961
10 0 59373  15600.000000  0       -169381.070       1889752.695      -6720465.755
10 0 59373  15660.000000  0         22483.261       2285818.470      -6599014.283
10 0 59373  15720.000000  0        217670.982       2670653.037      -6449826.414
10 0 59373  15780.000000  0        415262.117       3042625.026      -6273528.131
10 0 59373  15840.000000  0        614312.525       3400164.133      -6070858.008
10 0 59373  15900.000000  0        813858.244       3741767.617      -5842664.300
10 0 59373  15960.000000  0       1012920.013       4066006.568      -5589901.707
10 0 59373  16020.000000  0       1210507.930       4371531.920      -5313627.678
10 0 59373  16080.000000  0       1405626.246       4657080.151      -5014998.312
10 0 59373  16140.000000  0       1597278.254       4921478.671      -4695263.791
10 0 59373  16200.000000  0       1784471.251       5163650.780      -4355763.369
10 0 59373  16260.000000  0       1966221.535       5382620.190      -3997920.006
10 0 59373  16320.000000  0       2141559.409       5577515.155      -3623234.662
10 0 59373  16380.000000  0       2309534.218       5747572.175      -3233280.230
10 0 59373  16440.000000  0       2469219.355       5892139.244      -2829695.100
10 0 59373  16500.000000  0       2619717.225       6010678.596      -2414176.404
10 0 59373  16560.000000  0       2760164.125       6102768.933      -1988472.956
10 0 59373  16620.000000  0       2889734.997       6168107.139      -1554377.905
10 0 59373  16680.000000  0       3007648.039       6206509.416      -1113721.149
10 0 59373  16740.000000  0       3113169.129       6217911.848       -668361.554
10 0 59373  16800.000000  0       3205616.040       6202370.401       -220179.025
10 0 59373  16860.000000  0       3284362.439       6160060.352        228933.525
10 0 59373  16920.000000  0       3348841.638       6091275.154        677078.267
10 0 59373  16980.000000  0       3398550.091       5996424.783       1122360.578
10 0 59373  17040.000000  0       3433050.601       5876033.543       1562897.194
10 0 59373  17100.000000  0       3451975.185       5730737.309       1996824.332
10 0 59373  17160.000000  0       3455027.604       5561280.267       2422305.699
10 0 59373  17220.000000  0       3441985.553       5368511.145       2837540.448
10 0 59373  17280.000000  0       3412702.522       5153378.884       3240770.952
10 0 59373  17340.000000  0       3367109.262       4916927.821       3630290.262
10 0 59373  17400.000000  0       3305214.938       4660292.633       4004449.339
10 0 59373  17460.000000  0       3227107.827       4384692.860       4361664.228
10 0 59373  17520.000000  0       3132955.501       4091426.900       4700422.886
10 0 59373  17580.000000  0       3023004.616       3781865.647       5019291.456
10 0 59373  17640.000000  0       2897580.442       3457445.995       5316920.185
10 0 59373  17700.000000  0       2757086.005       3119664.041       5592049.034
10 0 59373  17760.000000  0       2602000.891       2770068.141       5843512.827
10 0 59373  17820.000000  0       2432879.703       2410251.799       6070246.151
10 0 59373  17880.000000  0       2250350.078       2041846.299       6271287.821
10 0 59373  17940.000000  0       2055110.327       1666513.211       6445784.814
10 0 59373  18000.000000  0       1847926.757       1285936.865       6592995.742
10 0 59373  18060.000000  0       1629630.649        901816.795       6712293.862
10 0 59373  18120.000000  0       1401114.922        515860.214       6803169.614
10 0 59373  18180.000000  0       1163330.535        129774.534       6865232.777
10 0 59373  18240.000000  0        917282.573       -254740.162       6898214.258
10 0 59373  18300.000000  0        664026.015       -635998.686       6901967.297
10 0 59373  18360.000000  0        404661.242      -1012338.133       6876468.143
10 0 59373  18420.000000  0        140329.270      -1382125.129       6821816.296
10 0 59373  18480.000000  0       -127793.244      -1743762.971       6738234.227
10 0 59373  18540.000000  0       -398499.235      -2095698.577       6626066.621
10 0 59373  18600.000000  0       -670556.650      -2436429.245       6485779.088
10 0 59373  18660.000000  0       -942713.991      -2764509.134       6317956.351
10 0 59373  18720.000000  0      -1213705.960      -3078555.455       6123300.021
10 0 59373  18780.000000  0      -1482259.295      -3377254.452       5902625.994
10 0 59373  18840.000000  0      -1747098.782      -3659367.091       5656861.314
10 0 59373  18900.000000  0      -2006953.371      -3923734.432       5387040.581
10 0 59373  18960.000000  0      -2260562.382      -4169282.696       5094301.866
10 0 59373  19020.000000  0      -2506681.779      -4395027.952       4779882.087
10 0 59373  19080.000000  0      -2744090.416      -4600080.327       4445111.892
10 0 59373  19140.000000  0      -2971596.221      -4783647.826       4091410.123
10 0 59373  19200.000000  0      -3188042.320      -4945039.694       3720277.791
10 0 59373  19260.000000  0      -3392312.982      -5083669.219       3333291.643
10 0 59373  19320.000000  0      -3583339.429      -5199056.074       2932097.447
10 0 59373  19380.000000  0      -3760105.503      -5290828.189       2518402.888
10 0 59373  19440.000000  0      -3921653.144      -5358723.071       2093970.138
10 0 59373  19500.000000  0      -4067087.608      -5402588.575       1660608.127
10 0 59373  19560.000000  0      -4195582.414      -5422383.114       1220164.562
10 0 59373  19620.000000  0      -4306383.947      -5418175.301        774517.757
10 0 59373  19680.000000  0      -4398815.740      -5390143.066        325568.313
10 0 59373  19740.000000  0      -4472282.403      -5338572.221       -124769.336
10 0 59373  19800.000000  0      -4526273.126      -5263854.480       -574575.483
10 0 59373  19860.000000  0      -4560364.756      -5166484.924      -1021933.724
10 0 59373  19920.000000  0      -4574224.410      -5047058.930      -1464939.504
10 0 59373  19980.000000  0      -4567611.620      -4906268.601      -1901708.558
10 0 59373  20040.000000  0      -4540380.013      -4744898.721      -2330385.228
10 0 59373  20100.000000  0      -4492478.497      -4563822.276      -2749150.564
10 0 59373  20160.000000  0      -4423951.969      -4363995.594      -3156230.210
10 0 59373  20220.000000  0      -4334941.543      -4146453.119      -3549902.034
10 0 59373  20280.000000  0      -4225684.297      -3912301.867      -3928503.437
10 0 59373  20340.000000  0      -4096512.575      -3662715.601      -4290438.366
10 0 59373  20400.000000  0      -3947852.825      -3398928.736      -4634183.971
10 0 59373  20460.000000  0      -3780223.974      -3122230.008      -4958296.881
10 0 59373  20520.000000  0      -3594235.359      -2833955.986      -5261419.036
10 0 59373  20580.000000  0      -3390584.263      -2535484.456      -5542283.111
10 0 59373  20640.000000  0      -3170053.068      -2228227.721      -5799717.500
10 0 59373  20700.000000  0      -2933506.038      -1913625.814      -6032650.904
10 0 59373  20760.000000  0      -2681885.704      -1593139.663      -6240116.449
10 0 59373  20820.000000  0      -2416208.889      -1268244.269      -6421255.318
10 0 59373  20880.000000  0      -2137562.419       -940421.920      -6575319.898
10 0 59373  20940.000000  0      -1847098.548       -611155.468      -6701676.436
10 0 59373  21000.000000  0      -1546030.133       -281921.729      -6799807.216
10 0 59373  21060.000000  0      -1235625.611         45814.974      -6869312.313
10 0 59373  21120.000000  0       -917203.711        370609.136      -6909911.003
10 0 59373  21180.000000  0       -592127.887        691040.305      -6921442.703
10 0 59373  21240.000000  0       -261800.571       1005719.162      -6903867.380
10 0 59373  21300.000000  0         72342.707       1313293.302      -6857265.509
10 0 59373  21360.000000  0        408839.334       1612452.822      -6781837.789
10 0 59373  21420.000000  0        746205.945       1901935.844      -6677904.404
10 0 59373  21480.000000  0       1082944.907       2180533.721      -6545903.632
10 0 59373  21540.000000  0       1417550.762       2447095.927      -6386390.062
99
